{"fetched_at":"2026-03-29T16:36:15Z","count":15609,"tles":[{"name":"STARLINK-32352","line1":"1 61847U 24202C   26087.55610839  .00002605  00000+0  10416-3 0  9993","line2":"2 61847  43.0014 120.1399 0001401 232.0229 128.0496 15.27579782 78357","category":"Starlink"}]}