{
  "norad_id": 61847,
  "name": "STARLINK-32352",
  "history": [
    {
      "epoch": "2026-03-28T13:20:47.764896",
      "apogee_km": 484.0110010736644,
      "perigee_km": 482.08849654664755,
      "latitude_deg": 34.651336675560856,
      "longitude_deg": 58.08640543976799,
      "semi_major_axis_km": 6861.186748810155,
      "eccentricity": 0.0001401,
      "inclination_deg": 43.0014,
      "raan_deg": 120.1399,
      "arg_perigee_deg": 232.0229,
      "mean_anomaly_deg": 128.0496,
      "mean_motion_rev_day": 15.27579782
    }
  ]
}